{
  "AF": {
    "flag": "afghanistan",
    "name": " 阿富汗",
    "dial_code": "+93",
    "code": "AF"
  },
  "AX": {
    "flag": "alandislands",
    "name": " 奧蘭群島",
    "dial_code": "+358",
    "code": "AX"
  },
  "AL": {
    "flag": "albania",
    "name": " 阿爾巴尼亞",
    "dial_code": "+355",
    "code": "AL"
  },
  "DZ": {
    "flag": "algeria",
    "name": " 阿爾及利亞",
    "dial_code": "+213",
    "code": "DZ"
  },
  "AS": {
    "flag": "americansamoa",
    "name": " 美屬薩摩亞",
    "dial_code": "+1684",
    "code": "AS"
  },
  "AD": {
    "flag": "andorra",
    "name": " 安道爾",
    "dial_code": "+376",
    "code": "AD"
  },
  "AO": {
    "flag": "angola",
    "name": " 安哥拉",
    "dial_code": "+244",
    "code": "AO"
  },
  "AI": {
    "flag": "anguilla",
    "name": " 安圭拉",
    "dial_code": "+1264",
    "code": "AI"
  },
  "AG": {
    "flag": "antiguaandbarbuda",
    "name": " 安提瓜和巴布達",
    "dial_code": "+1268",
    "code": "AG"
  },
  "AR": {
    "flag": "argentina",
    "name": " 阿根廷",
    "dial_code": "+54",
    "code": "AR"
  },
  "AM": {
    "flag": "armenia",
    "name": " 亞美尼亞",
    "dial_code": "+374",
    "code": "AM"
  },
  "AW": {
    "flag": "aruba",
    "name": " 阿魯巴",
    "dial_code": "+297",
    "code": "AW"
  },
  "AU": {
    "flag": "australia",
    "name": " 澳大利亞",
    "dial_code": "+61",
    "code": "AU"
  },
  "AT": {
    "flag": "austria",
    "name": " 奧地利",
    "dial_code": "+43",
    "code": "AT"
  },
  "AZ": {
    "flag": "azerbaijan",
    "name": " 阿塞拜疆",
    "dial_code": "+994",
    "code": "AZ"
  },
  "BS": {
    "flag": "bahamas",
    "name": " 巴哈馬",
    "dial_code": "+1242",
    "code": "BS"
  },
  "BH": {
    "flag": "bahrain",
    "name": " 巴林",
    "dial_code": "+973",
    "code": "BH"
  },
  "BD": {
    "flag": "bangladesh",
    "name": " 孟加拉國",
    "dial_code": "+880",
    "code": "BD"
  },
  "BB": {
    "flag": "barbados",
    "name": " 巴巴多斯",
    "dial_code": "+1246",
    "code": "BB"
  },
  "BY": {
    "flag": "belarus",
    "name": " 白俄羅斯",
    "dial_code": "+375",
    "code": "BY"
  },
  "BE": {
    "flag": "belgium",
    "name": " 比利時",
    "dial_code": "+32",
    "code": "BE"
  },
  "BZ": {
    "flag": "belize",
    "name": " 伯利茲",
    "dial_code": "+501",
    "code": "BZ"
  },
  "BJ": {
    "flag": "benin",
    "name": " 貝寧",
    "dial_code": "+229",
    "code": "BJ"
  },
  "BM": {
    "flag": "bermuda",
    "name": " 百慕大",
    "dial_code": "+1441",
    "code": "BM"
  },
  "BT": {
    "flag": "bhutan",
    "name": " 不丹",
    "dial_code": "+975",
    "code": "BT"
  },
  "BO": {
    "flag": "bolivia",
    "name": " 玻利維亞",
    "dial_code": "+591",
    "code": "BO"
  },
  "BA": {
    "flag": "bosniaandherzegovina",
    "name": " 波斯尼亞和黑塞哥維那",
    "dial_code": "+387",
    "code": "BA"
  },
  "BW": {
    "flag": "botswana",
    "name": " 博茨瓦納",
    "dial_code": "+267",
    "code": "BW"
  },
  "BR": {
    "flag": "brazil",
    "name": " 巴西",
    "dial_code": "+55",
    "code": "BR"
  },
  "IO": {
    "flag": "britishindianoceanterritory",
    "name": " 英屬印度洋領地",
    "dial_code": "+246",
    "code": "IO"
  },
  "BN": {
    "flag": "brunei",
    "name": " 文萊達魯薩蘭國",
    "dial_code": "+673",
    "code": "BN"
  },
  "BG": {
    "flag": "bulgaria",
    "name": " 保加利亞",
    "dial_code": "+359",
    "code": "BG"
  },
  "BF": {
    "flag": "burkinafaso",
    "name": " 布基納法索",
    "dial_code": "+226",
    "code": "BF"
  },
  "BI": {
    "flag": "burundi",
    "name": " 布隆迪",
    "dial_code": "+257",
    "code": "BI"
  },
  "KH": {
    "flag": "cambodia",
    "name": " 柬埔寨",
    "dial_code": "+855",
    "code": "KH"
  },
  "CM": {
    "flag": "cameroon",
    "name": " 喀麥隆",
    "dial_code": "+237",
    "code": "CM"
  },
  "CA": {
    "flag": "canada",
    "name": " 加拿大",
    "dial_code": "+1",
    "code": "CA"
  },
  "CV": {
    "flag": "capeverde",
    "name": " 佛得角",
    "dial_code": "+238",
    "code": "CV"
  },
  "KY": {
    "flag": "caymanislands",
    "name": " 開曼群島",
    "dial_code": "+ 345",
    "code": "KY"
  },
  "CF": {
    "flag": "centralafricanrepublic",
    "name": " 中非共和國",
    "dial_code": "+236",
    "code": "CF"
  },
  "TD": {
    "flag": "chad",
    "name": " 乍得",
    "dial_code": "+235",
    "code": "TD"
  },
  "CL": {
    "flag": "chile",
    "name": " 智利",
    "dial_code": "+56",
    "code": "CL"
  },
  "CN": {
    "flag": "china",
    "name": " 中國",
    "dial_code": "+86",
    "code": "CN"
  },
  "CX": {
    "flag": "christmasisland",
    "name": " 聖誕島",
    "dial_code": "+61",
    "code": "CX"
  },
  "CC": {
    "flag": "cocosisland",
    "name": " 科科斯（基林）群島",
    "dial_code": "+61",
    "code": "CC"
  },
  "CO": {
    "flag": "colombia",
    "name": " 哥倫比亞",
    "dial_code": "+57",
    "code": "CO"
  },
  "KM": {
    "flag": "comoros",
    "name": " 科摩羅",
    "dial_code": "+269",
    "code": "KM"
  },
  "CG": {
    "flag": "republicofthecongo",
    "name": " 剛果",
    "dial_code": "+242",
    "code": "CG"
  },
  "CD": {
    "flag": "democraticrepublicofcongo",
    "name": " 剛果民主共和國",
    "dial_code": "+243",
    "code": "CD"
  },
  "CK": {
    "flag": "cookislands",
    "name": " 庫克群島",
    "dial_code": "+682",
    "code": "CK"
  },
  "CR": {
    "flag": "costarica",
    "name": " 哥斯達黎加",
    "dial_code": "+506",
    "code": "CR"
  },
  "CI": {
    "flag": "ivorycoast",
    "name": " 科特迪瓦",
    "dial_code": "+225",
    "code": "CI"
  },
  "HR": {
    "flag": "croatia",
    "name": " 克羅地亞",
    "dial_code": "+385",
    "code": "HR"
  },
  "CU": {
    "flag": "cuba",
    "name": " 古巴",
    "dial_code": "+53",
    "code": "CU"
  },
  "CY": {
    "flag": "cyprus",
    "name": " 塞浦路斯",
    "dial_code": "+357",
    "code": "CY"
  },
  "CZ": {
    "flag": "czechrepublic",
    "name": " 捷克共和國",
    "dial_code": "+420",
    "code": "CZ"
  },
  "DK": {
    "flag": "denmark",
    "name": " 丹麥",
    "dial_code": "+45",
    "code": "DK"
  },
  "DJ": {
    "flag": "djibouti",
    "name": " 吉布提",
    "dial_code": "+253",
    "code": "DJ"
  },
  "DM": {
    "flag": "dominica",
    "name": " 多米尼加",
    "dial_code": "+1767",
    "code": "DM"
  },
  "DO": {
    "flag": "dominicanrepublic",
    "name": " 多米尼加共和國",
    "dial_code": "+1849",
    "code": "DO"
  },
  "EC": {
    "flag": "ecuador",
    "name": " 厄瓜多爾",
    "dial_code": "+593",
    "code": "EC"
  },
  "EG": {
    "flag": "egypt",
    "name": " 埃及",
    "dial_code": "+20",
    "code": "EG"
  },
  "SV": {
    "flag": "elsalvador",
    "name": " 薩爾瓦多",
    "dial_code": "+503",
    "code": "SV"
  },
  "GQ": {
    "flag": "equatorialguinea",
    "name": " 赤道幾內亞",
    "dial_code": "+240",
    "code": "GQ"
  },
  "ER": {
    "flag": "eritrea",
    "name": " 厄立特里亞",
    "dial_code": "+291",
    "code": "ER"
  },
  "EE": {
    "flag": "estonia",
    "name": " 愛沙尼亞",
    "dial_code": "+372",
    "code": "EE"
  },
  "ET": {
    "flag": "ethiopia",
    "name": " 埃塞俄比亞",
    "dial_code": "+251",
    "code": "ET"
  },
  "FK": {
    "flag": "falklandislands",
    "name": " 福克蘭群島（馬爾維納斯）",
    "dial_code": "+500",
    "code": "FK"
  },
  "FO": {
    "flag": "faroeislands",
    "name": " 法羅群島",
    "dial_code": "+298",
    "code": "FO"
  },
  "FJ": {
    "flag": "fiji",
    "name": " 斐濟",
    "dial_code": "+679",
    "code": "FJ"
  },
  "FI": {
    "flag": "finland",
    "name": " 芬蘭",
    "dial_code": "+358",
    "code": "FI"
  },
  "FR": {
    "flag": "france",
    "name": " 法國",
    "dial_code": "+33",
    "code": "FR"
  },
  "PF": {
    "flag": "frenchpolynesia",
    "name": " 法屬波利尼西亞",
    "dial_code": "+689",
    "code": "PF"
  },
  "GA": {
    "flag": "gabon",
    "name": " 加蓬",
    "dial_code": "+241",
    "code": "GA"
  },
  "GM": {
    "flag": "gambia",
    "name": " 岡比亞",
    "dial_code": "+220",
    "code": "GM"
  },
  "GE": {
    "flag": "georgia",
    "name": " 格魯吉亞",
    "dial_code": "+995",
    "code": "GE"
  },
  "DE": {
    "flag": "germany",
    "name": " 德國",
    "dial_code": "+49",
    "code": "DE"
  },
  "GH": {
    "flag": "ghana",
    "name": " 加納",
    "dial_code": "+233",
    "code": "GH"
  },
  "GI": {
    "flag": "gibraltar",
    "name": " 直布羅陀",
    "dial_code": "+350",
    "code": "GI"
  },
  "GR": {
    "flag": "greece",
    "name": " 希臘",
    "dial_code": "+30",
    "code": "GR"
  },
  "GL": {
    "flag": "greenland",
    "name": " 格陵蘭",
    "dial_code": "+299",
    "code": "GL"
  },
  "GD": {
    "flag": "grenada",
    "name": " 格林納達",
    "dial_code": "+1473",
    "code": "GD"
  },
  "GU": {
    "flag": "guam",
    "name": " 關島",
    "dial_code": "+1671",
    "code": "GU"
  },
  "GT": {
    "flag": "guatemala",
    "name": " 危地馬拉",
    "dial_code": "+502",
    "code": "GT"
  },
  "GG": {
    "flag": "guernsey",
    "name": " 根西島",
    "dial_code": "+44",
    "code": "GG"
  },
  "GN": {
    "flag": "guinea",
    "name": " 幾內亞",
    "dial_code": "+224",
    "code": "GN"
  },
  "GW": {
    "flag": "guineabissau",
    "name": " 幾內亞比紹",
    "dial_code": "+245",
    "code": "GW"
  },
  "GY": {
    "flag": "guyana",
    "name": " 圭亞那",
    "dial_code": "+595",
    "code": "GY"
  },
  "HT": {
    "flag": "haiti",
    "name": " 海地",
    "dial_code": "+509",
    "code": "HT"
  },
  "VA": {
    "flag": "vaticancity",
    "name": " 梵蒂岡城",
    "dial_code": "+379",
    "code": "VA"
  },
  "HN": {
    "flag": "honduras",
    "name": " 洪都拉斯",
    "dial_code": "+504",
    "code": "HN"
  },
  "HK": {
    "flag": "hongkong",
    "name": " 香港",
    "dial_code": "+852",
    "code": "HK"
  },
  "HU": {
    "flag": "hungary",
    "name": " 匈牙利",
    "dial_code": "+36",
    "code": "HU"
  },
  "IS": {
    "flag": "iceland",
    "name": " 冰島",
    "dial_code": "+354",
    "code": "IS"
  },
  "IN": {
    "flag": "india",
    "name": " 印度",
    "dial_code": "+91",
    "code": "IN"
  },
  "ID": {
    "flag": "indonesia",
    "name": " 印度尼西亞",
    "dial_code": "+62",
    "code": "ID"
  },
  "IR": {
    "flag": "iran",
    "name": " 伊朗",
    "dial_code": "+98",
    "code": "IR"
  },
  "IQ": {
    "flag": "iraq",
    "name": " 伊拉克",
    "dial_code": "+964",
    "code": "IQ"
  },
  "IE": {
    "flag": "ireland",
    "name": " 愛爾蘭",
    "dial_code": "+353",
    "code": "IE"
  },
  "IM": {
    "flag": "isleofman",
    "name": " 馬恩島",
    "dial_code": "+44",
    "code": "IM"
  },
  "IL": {
    "flag": "israel",
    "name": " 以色列",
    "dial_code": "+972",
    "code": "IL"
  },
  "IT": {
    "flag": "italy",
    "name": " 意大利",
    "dial_code": "+39",
    "code": "IT"
  },
  "JM": {
    "flag": "jamaica",
    "name": " 牙買加",
    "dial_code": "+1876",
    "code": "JM"
  },
  "JP": {
    "flag": "japan",
    "name": " 日本",
    "dial_code": "+81",
    "code": "JP"
  },
  "JE": {
    "flag": "jersey",
    "name": " 球衣",
    "dial_code": "+44",
    "code": "JE"
  },
  "JO": {
    "flag": "jordan",
    "name": " 喬丹",
    "dial_code": "+962",
    "code": "JO"
  },
  "KZ": {
    "flag": "kazakhstan",
    "name": " 哈薩克斯坦",
    "dial_code": "+77",
    "code": "KZ"
  },
  "KE": {
    "flag": "kenya",
    "name": " 肯尼亞",
    "dial_code": "+254",
    "code": "KE"
  },
  "KI": {
    "flag": "kiribati",
    "name": " 基里巴斯",
    "dial_code": "+686",
    "code": "KI"
  },
  "XK": {
    "flag": "kosovo",
    "name": " 科索沃",
    "dial_code": "+383",
    "code": "XK"
  },
  "KP": {
    "flag": "northkorea",
    "name": " 韓國，北",
    "dial_code": "+850",
    "code": "KP"
  },
  "KR": {
    "flag": "southkorea",
    "name": " 韓國，南",
    "dial_code": "+82",
    "code": "KR"
  },
  "KW": {
    "flag": "kuwait",
    "name": " 科威特",
    "dial_code": "+965",
    "code": "KW"
  },
  "KG": {
    "flag": "kyrgyzstan",
    "name": " 吉爾吉斯斯坦",
    "dial_code": "+996",
    "code": "KG"
  },
  "LA": {
    "flag": "laos",
    "name": " 老撾",
    "dial_code": "+856",
    "code": "LA"
  },
  "LV": {
    "flag": "latvia",
    "name": " 拉脫維亞",
    "dial_code": "+371",
    "code": "LV"
  },
  "LB": {
    "flag": "lebanon",
    "name": " 黎巴嫩",
    "dial_code": "+961",
    "code": "LB"
  },
  "LS": {
    "flag": "lesotho",
    "name": " 萊索托",
    "dial_code": "+266",
    "code": "LS"
  },
  "LR": {
    "flag": "liberia",
    "name": " 利比里亞",
    "dial_code": "+231",
    "code": "LR"
  },
  "LY": {
    "flag": "libya",
    "name": " 阿拉伯利比亞民眾國",
    "dial_code": "+218",
    "code": "LY"
  },
  "LI": {
    "flag": "liechtenstein",
    "name": " 列支敦士登",
    "dial_code": "+423",
    "code": "LI"
  },
  "LT": {
    "flag": "lithuania",
    "name": " 立陶宛",
    "dial_code": "+370",
    "code": "LT"
  },
  "LU": {
    "flag": "luxembourg",
    "name": " 盧森堡",
    "dial_code": "+352",
    "code": "LU"
  },
  "MO": {
    "flag": "macao",
    "name": " 澳門",
    "dial_code": "+853",
    "code": "MO"
  },
  "MK": {
    "flag": "republicofmacedonia",
    "name": " 馬其頓",
    "dial_code": "+389",
    "code": "MK"
  },
  "MG": {
    "flag": "madagascar",
    "name": " 馬達加斯加",
    "dial_code": "+261",
    "code": "MG"
  },
  "MW": {
    "flag": "malawi",
    "name": " 馬拉維",
    "dial_code": "+265",
    "code": "MW"
  },
  "MY": {
    "flag": "malaysia",
    "name": " 馬來西亞",
    "dial_code": "+60",
    "code": "MY"
  },
  "MV": {
    "flag": "maldives",
    "name": " 馬爾代夫",
    "dial_code": "+960",
    "code": "MV"
  },
  "ML": {
    "flag": "mali",
    "name": " 馬里",
    "dial_code": "+223",
    "code": "ML"
  },
  "MT": {
    "flag": "malta",
    "name": " 馬耳他",
    "dial_code": "+356",
    "code": "MT"
  },
  "MH": {
    "flag": "marshallisland",
    "name": " 馬紹爾群島",
    "dial_code": "+692",
    "code": "MH"
  },
  "MQ": {
    "flag": "martinique",
    "name": " 馬提尼克島",
    "dial_code": "+596",
    "code": "MQ"
  },
  "MR": {
    "flag": "mauritania",
    "name": " 毛里塔尼亞",
    "dial_code": "+222",
    "code": "MR"
  },
  "MU": {
    "flag": "mauritius",
    "name": " 毛里求斯",
    "dial_code": "+230",
    "code": "MU"
  },
  "MX": {
    "flag": "mexico",
    "name": " 墨西哥",
    "dial_code": "+52",
    "code": "MX"
  },
  "FM": {
    "flag": "micronesia",
    "name": " 密克羅尼西亞",
    "dial_code": "+691",
    "code": "FM"
  },
  "MD": {
    "flag": "moldova",
    "name": " 摩爾多瓦",
    "dial_code": "+373",
    "code": "MD"
  },
  "MC": {
    "flag": "monaco",
    "name": " 摩納哥",
    "dial_code": "+377",
    "code": "MC"
  },
  "MN": {
    "flag": "mongolia",
    "name": " 蒙古",
    "dial_code": "+976",
    "code": "MN"
  },
  "ME": {
    "flag": "montenegro",
    "name": " 黑山",
    "dial_code": "+382",
    "code": "ME"
  },
  "MS": {
    "flag": "montserrat",
    "name": " 蒙特塞拉特",
    "dial_code": "+1664",
    "code": "MS"
  },
  "MA": {
    "flag": "morocco",
    "name": " 摩洛哥",
    "dial_code": "+212",
    "code": "MA"
  },
  "MZ": {
    "flag": "mozambique",
    "name": " 莫桑比克",
    "dial_code": "+258",
    "code": "MZ"
  },
  "MM": {
    "flag": "myanmar",
    "name": " 緬甸",
    "dial_code": "+95",
    "code": "MM"
  },
  "NA": {
    "flag": "namibia",
    "name": " 納米比亞",
    "dial_code": "+264",
    "code": "NA"
  },
  "NR": {
    "flag": "nauru",
    "name": " 瑙魯",
    "dial_code": "+674",
    "code": "NR"
  },
  "NP": {
    "flag": "nepal",
    "name": " 尼泊爾",
    "dial_code": "+977",
    "code": "NP"
  },
  "NL": {
    "flag": "netherlands",
    "name": " 荷蘭",
    "dial_code": "+31",
    "code": "NL"
  },
  "NZ": {
    "flag": "newzealand",
    "name": " 新西蘭",
    "dial_code": "+64",
    "code": "NZ"
  },
  "NI": {
    "flag": "nicaragua",
    "name": " 尼加拉瓜",
    "dial_code": "+505",
    "code": "NI"
  },
  "NE": {
    "flag": "niger",
    "name": " 尼日爾",
    "dial_code": "+227",
    "code": "NE"
  },
  "NG": {
    "flag": "nigeria",
    "name": " 尼日利亞",
    "dial_code": "+234",
    "code": "NG"
  },
  "NU": {
    "flag": "niue",
    "name": " 紐埃",
    "dial_code": "+683",
    "code": "NU"
  },
  "NF": {
    "flag": "norfolkisland",
    "name": " 諾福克島",
    "dial_code": "+672",
    "code": "NF"
  },
  "MP": {
    "flag": "northernmarianasislands",
    "name": " 北馬里亞納群島",
    "dial_code": "+1670",
    "code": "MP"
  },
  "NO": {
    "flag": "norway",
    "name": " 挪威",
    "dial_code": "+47",
    "code": "NO"
  },
  "OM": {
    "flag": "oman",
    "name": " 阿曼",
    "dial_code": "+968",
    "code": "OM"
  },
  "PK": {
    "flag": "pakistan",
    "name": " 巴基斯坦",
    "dial_code": "+92",
    "code": "PK"
  },
  "PW": {
    "flag": "palau",
    "name": " 帕勞",
    "dial_code": "+680",
    "code": "PW"
  },
  "PS": {
    "flag": "palestine",
    "name": " 巴勒斯坦",
    "dial_code": "+970",
    "code": "PS"
  },
  "PA": {
    "flag": "panama",
    "name": " 巴拿馬",
    "dial_code": "+507",
    "code": "PA"
  },
  "PG": {
    "flag": "papuanewguinea",
    "name": " 巴布亞新幾內亞",
    "dial_code": "+675",
    "code": "PG"
  },
  "PY": {
    "flag": "paraguay",
    "name": " 巴拉圭",
    "dial_code": "+595",
    "code": "PY"
  },
  "PE": {
    "flag": "peru",
    "name": " 秘魯",
    "dial_code": "+51",
    "code": "PE"
  },
  "PH": {
    "flag": "philippines",
    "name": " 菲律賓",
    "dial_code": "+63",
    "code": "PH"
  },
  "PN": {
    "flag": "pitcairnislands",
    "name": " 皮特凱恩",
    "dial_code": "+872",
    "code": "PN"
  },
  "PL": {
    "flag": "poland",
    "name": " 波蘭",
    "dial_code": "+48",
    "code": "PL"
  },
  "PT": {
    "flag": "portugal",
    "name": " 葡萄牙",
    "dial_code": "+351",
    "code": "PT"
  },
  "PR": {
    "flag": "puertorico",
    "name": " 波多黎各",
    "dial_code": "+1939",
    "code": "PR"
  },
  "QA": {
    "flag": "qatar",
    "name": " 卡塔爾",
    "dial_code": "+974",
    "code": "QA"
  },
  "RO": {
    "flag": "romania",
    "name": " 羅馬尼亞",
    "dial_code": "+40",
    "code": "RO"
  },
  "RU": {
    "flag": "russia",
    "name": " 俄羅斯",
    "dial_code": "+7",
    "code": "RU"
  },
  "RW": {
    "flag": "rwanda",
    "name": " 盧旺達",
    "dial_code": "+250",
    "code": "RW"
  },
  "KN": {
    "flag": "saintkittsandnevis",
    "name": " 聖基茨和尼維斯",
    "dial_code": "+1869",
    "code": "KN"
  },
  "WS": {
    "flag": "samoa",
    "name": " 薩摩亞",
    "dial_code": "+685",
    "code": "WS"
  },
  "SM": {
    "flag": "sanmarino",
    "name": " 聖馬力諾",
    "dial_code": "+378",
    "code": "SM"
  },
  "ST": {
    "flag": "saotomeandprince",
    "name": " 聖多美和普林西比",
    "dial_code": "+239",
    "code": "ST"
  },
  "SA": {
    "flag": "saudiarabia",
    "name": " 沙特阿拉伯",
    "dial_code": "+966",
    "code": "SA"
  },
  "SN": {
    "flag": "senegal",
    "name": " 塞內加爾",
    "dial_code": "+221",
    "code": "SN"
  },
  "RS": {
    "flag": "serbia",
    "name": " 塞爾維亞",
    "dial_code": "+381",
    "code": "RS"
  },
  "SC": {
    "flag": "seychelles",
    "name": " 塞舌爾",
    "dial_code": "+248",
    "code": "SC"
  },
  "SL": {
    "flag": "sierraleone",
    "name": " 塞拉利昂",
    "dial_code": "+232",
    "code": "SL"
  },
  "SG": {
    "flag": "singapore",
    "name": " 新加坡",
    "dial_code": "+65",
    "code": "SG"
  },
  "SK": {
    "flag": "slovakia",
    "name": " 斯洛伐克",
    "dial_code": "+421",
    "code": "SK"
  },
  "SI": {
    "flag": "slovenia",
    "name": " 斯洛文尼亞",
    "dial_code": "+386",
    "code": "SI"
  },
  "SB": {
    "flag": "solomonislands",
    "name": " 所羅門群島",
    "dial_code": "+677",
    "code": "SB"
  },
  "SO": {
    "flag": "somalia",
    "name": " 索馬里",
    "dial_code": "+252",
    "code": "SO"
  },
  "ZA": {
    "flag": "southafrica",
    "name": " 南非",
    "dial_code": "+27",
    "code": "ZA"
  },
  "SS": {
    "flag": "southsudan",
    "name": " 南蘇丹",
    "dial_code": "+211",
    "code": "SS"
  },
  "ES": {
    "flag": "spain",
    "name": " 西班牙",
    "dial_code": "+34",
    "code": "ES"
  },
  "LK": {
    "flag": "srilanka",
    "name": " 斯里蘭卡",
    "dial_code": "+94",
    "code": "LK"
  },
  "SD": {
    "flag": "sudan",
    "name": " 蘇丹",
    "dial_code": "+249",
    "code": "SD"
  },
  "SR": {
    "flag": "suriname",
    "name": " 蘇里南",
    "dial_code": "+597",
    "code": "SR"
  },
  "SZ": {
    "flag": "swaziland",
    "name": " 斯威士蘭",
    "dial_code": "+268",
    "code": "SZ"
  },
  "SE": {
    "flag": "sweden",
    "name": " 瑞典",
    "dial_code": "+46",
    "code": "SE"
  },
  "CH": {
    "flag": "switzerland",
    "name": " 瑞士",
    "dial_code": "+41",
    "code": "CH"
  },
  "SY": {
    "flag": "syria",
    "name": " 阿拉伯敘利亞共和國",
    "dial_code": "+963",
    "code": "SY"
  },
  "TW": {
    "flag": "taiwan",
    "name": " 台灣",
    "dial_code": "+886",
    "code": "TW"
  },
  "TJ": {
    "flag": "tajikistan",
    "name": " 塔吉克斯坦",
    "dial_code": "+992",
    "code": "TJ"
  },
  "TZ": {
    "flag": "tanzania",
    "name": " 坦桑尼亞",
    "dial_code": "+255",
    "code": "TZ"
  },
  "TH": {
    "flag": "thailand",
    "name": " 泰國",
    "dial_code": "+66",
    "code": "TH"
  },
  "TL": {
    "flag": "tibet",
    "name": " 東帝汶",
    "dial_code": "+670",
    "code": "TL"
  },
  "TG": {
    "flag": "togo",
    "name": " 多哥",
    "dial_code": "+228",
    "code": "TG"
  },
  "TK": {
    "flag": "tokelau",
    "name": " 托克勞",
    "dial_code": "+690",
    "code": "TK"
  },
  "TO": {
    "flag": "tonga",
    "name": " 湯加",
    "dial_code": "+676",
    "code": "TO"
  },
  "TT": {
    "flag": "trinidadandtobago",
    "name": " 特立尼達和多巴哥",
    "dial_code": "+1868",
    "code": "TT"
  },
  "TN": {
    "flag": "tunisia",
    "name": " 突尼斯",
    "dial_code": "+216",
    "code": "TN"
  },
  "TR": {
    "flag": "turkey",
    "name": " 土耳其",
    "dial_code": "+90",
    "code": "TR"
  },
  "TM": {
    "flag": "turkmenistan",
    "name": " 土庫曼斯坦",
    "dial_code": "+993",
    "code": "TM"
  },
  "TC": {
    "flag": "turksandcaicos",
    "name": " 特克斯和凱科斯群島",
    "dial_code": "+1649",
    "code": "TC"
  },
  "TV": {
    "flag": "tuvalu",
    "name": " 圖瓦盧",
    "dial_code": "+688",
    "code": "TV"
  },
  "UG": {
    "flag": "uganda",
    "name": " 烏干達",
    "dial_code": "+256",
    "code": "UG"
  },
  "UA": {
    "flag": "ukraine",
    "name": " 烏克蘭",
    "dial_code": "+380",
    "code": "UA"
  },
  "AE": {
    "flag": "unitedarabemirates",
    "name": " 阿拉伯聯合酋長國",
    "dial_code": "+971",
    "code": "AE"
  },
  "GB": {
    "flag": "unitedkingdom",
    "name": " 英國",
    "dial_code": "+44",
    "code": "GB"
  },
  "US": {
    "flag": "unitedstates",
    "name": " 美國",
    "dial_code": "+1",
    "code": "US"
  },
  "UY": {
    "flag": "uruguay",
    "name": " 烏拉圭",
    "dial_code": "+598",
    "code": "UY"
  },
  "UZ": {
    "flag": "uzbekistán",
    "name": " 烏茲別克斯坦",
    "dial_code": "+998",
    "code": "UZ"
  },
  "VU": {
    "flag": "vanuatu",
    "name": " 瓦努阿圖",
    "dial_code": "+678",
    "code": "VU"
  },
  "VE": {
    "flag": "venezuela",
    "name": " 委內瑞拉",
    "dial_code": "+58",
    "code": "VE"
  },
  "VN": {
    "flag": "vietnam",
    "name": " 越南",
    "dial_code": "+84",
    "code": "VN"
  },
  "VG": {
    "flag": "virginislands",
    "name": " 英屬維爾京群島",
    "dial_code": "+1284",
    "code": "VG"
  },
  "YE": {
    "flag": "yemen",
    "name": " 也門",
    "dial_code": "+967",
    "code": "YE"
  },
  "ZM": {
    "flag": "zambia",
    "name": " 贊比亞",
    "dial_code": "+260",
    "code": "ZM"
  },
  "ZW": {
    "flag": "zimbabwe",
    "name": " 津巴布韋",
    "dial_code": "+263",
    "code": "ZW"
  }
}
